ONEWEB-0551             
1 56053U 23043H   23271.52974679  .00000080  00000+0  17875-3 0  9993
2 56053  87.8944  96.8710 0001900  79.5867 280.5478 13.15547371 26799
ONEWEB-0552             
1 56054U 23043J   23271.53989334  .00000023  00000+0  23929-4 0  9994
2 56054  87.9180  81.6318 0002209  94.4557 265.6830 13.21826279 28000
ONEWEB-0553             
1 56055U 23043K   23271.58335648 -.01547077  00000+0 -27398+0 0  9990
2 56055  87.0079  70.7212 0004070  78.8300 157.3804 14.71230415 28781
ONEWEB-0554             
1 56056U 23043L   23271.58335648 -.01598695  00000+0 -29252+0 0  9994
2 56056  87.0091  70.5879 0001692 136.6756  14.5313 14.69355533 28783
ONEWEB-0555             
1 56057U 23043M   23271.58335648 -.01577084  00000+0 -27668+0 0  9993
2 56057  87.0033  70.6423 0002978 127.1573 264.3367 14.71139583 28788
ONEWEB-0557             
1 56058U 23043N   23271.58335648 -.01596721  00000+0 -29607+0 0  9998
2 56058  87.0103  70.5809 0002501 110.4722 108.9187 14.68763416 28784
ONEWEB-0558             
1 56059U 23043P   23271.53359608  .00000286  00000+0  66215-3 0  9999
2 56059  87.9170  81.6101 0002078  72.5411 287.5950 13.21824931 28014
ONEWEB-0559             
1 56060U 23043Q   23270.83973241 -.00000050  00000+0 -15183-3 0  9997
2 56060  87.9184  81.7494 0002522  92.4678 267.6744 13.21826823 27939
ONEWEB-0566             
1 56061U 23043R   23270.75766168  .00000097  00000+0  20334-3 0  9990
2 56061  87.9174  81.7687 0002361  75.3818 284.7578 13.21819055 27901
ONEWEB-0568             
1 56062U 23043S   23271.58335648 -.01534047  00000+0 -26182+0 0  9991
2 56062  87.0027  70.7738 0002989 123.0377 205.3840 14.72805795 28783
ONEWEB-0574             
1 56063U 23043T   23271.50836935  .00000408  00000+0  95734-3 0  9998
2 56063  87.9168  81.6143 0001527  76.8277 283.3028 13.21824328 28040
ONEWEB-0575             
1 56064U 23043U   23271.25001157 -.01480259  00000+0 -24796+0 0  9996
2 56064  86.9930  70.9023 0002422  91.0098 225.0781 14.73484577 28731
ONEWEB-0576             
1 56065U 23043V   23271.58335648 -.01534137  00000+0 -27130+0 0  9998
2 56065  87.0064  70.6977 0003409  97.9034 278.7418 14.71265453 28783
ONEWEB-0577             
1 56066U 23043W   23271.58335648 -.01546705  00000+0 -25949+0 0  9999
2 56066  86.9951  70.8553 0001815 144.8056 262.2531 14.73583468 28790
ONEWEB-0578             
1 56067U 23043X   23270.51168060  .00000083  00000+0  16832-3 0  9990
2 56067  87.9146  81.8080 0001591  90.5191 269.6125 13.21823350 27870
ONEWEB-0579             
1 56068U 23043Y   23270.80606636  .00000094  00000+0  19487-3 0  9990
2 56068  87.9173  81.7528 0002277  91.2678 268.8717 13.21822414 27921
ONEWEB-0581             
1 56069U 23043Z   23271.58335648 -.01570224  00000+0 -27556+0 0  9991
2 56069  87.0101  70.7290 0004168  92.0796 241.3643 14.71104416 28789
ONEWEB-0609             
1 56070U 23043AA  23271.48324238  .00000030  00000+0  44665-4 0  9990
2 56070  87.8915  96.8880 0001662  83.9457 276.1862 13.15550221 26823
ONEWEB-0613             
1 56071U 23043AB  23271.55508177 -.00000029  00000+0 -11121-3 0  9995
2 56071  87.8941  96.8427 0002110  84.1788 275.9583 13.15546226 26837
ONEWEB-0630             
1 56072U 23043AC  23270.56210954  .00000085  00000+0  19093-3 0  9995
2 56072  87.8939  97.0419 0002121  77.5807 282.5561 13.15545968 26695
ONEWEB-0632             
1 56073U 23043AD  23271.54663106 -.00000107  00000+0 -31760-3 0  9998
2 56073  87.8943  96.8594 0002290  99.6454 260.4935 13.15546087 26820
ONEWEB-0633             
1 56074U 23043AE  23271.54243205 -.00000075  00000+0 -23399-3 0  9996
2 56074  87.8934  96.8565 0002265  71.9536 288.1841 13.15546344 26802
ONEWEB-0634             
1 56075U 23043AF  23271.52437080  .00000164  00000+0  40170-3 0  9994
2 56075  87.8935  96.8538 0001467  71.1367 288.9922 13.15551331 26799
ONEWEB-0635             
1 56076U 23043AG  23270.60435248  .00000098  00000+0  22537-3 0  9990
2 56076  87.8917  97.1142 0002166 100.5330 259.6044 13.15552802 26704
ONEWEB-0636             
1 56077U 23043AH  23271.50858484  .00000217  00000+0  54308-3 0  9996
2 56077  87.8923  96.8955 0002029  99.9741 260.1619 13.15554316 26803
ONEWEB-0637             
1 56078U 23043AJ  23271.50435265  .00000201  00000+0  50112-3 0  9997
2 56078  87.8948  96.8530 0001875 101.0749 259.0593 13.15552572 26823
ONEWEB-0647             
1 56079U 23043AK  23270.58746764  .00000191  00000+0  47224-3 0  9992
2 56079  87.8943  97.0619 0002201  94.1231 266.0151 13.15553179 25788
ONEWEB-0651             
1 56080U 23043AL  23270.58321852  .00000189  00000+0  46797-3 0  9992
2 56080  87.8940  97.0368 0001746 103.6167 256.5158 13.15551689 25780
ONEWEB-0718             
1 56081U 23043AM  23270.57899589  .00000085  00000+0  19083-3 0  9992
2 56081  87.8869  97.0684 0001369  64.8116 295.3156 13.15552111 26708
GSLV R/B                
1 56082U 23043AN  23270.52265642  .00038831  00000+0  77813-3 0  9990
2 56082  87.4073  76.7889 0022136  28.5179 331.7285 15.46294481 28567
ONEWEB-0561             
1 56710U 23068A   23271.02981751  .00000101  00000+0  17665-3 0  9995
2 56710  88.2876 105.8409 0002609  92.4975 267.6465 13.34307511 18867
ONEWEB-0668             
1 56711U 23068B   23271.49303135  .00009379  00000+0  12771-2 0  9999
2 56711  86.7175  86.7131 0017199 120.0567 240.2362 14.78532277 20197
ONEWEB-0676             
1 56712U 23068C   23271.03150113  .00001867  00000+0  25252-3 0  9999
2 56712  86.7131  86.8421 0016997 122.9727 237.3130 14.78376498 20121
ONEWEB-0677             
1 56713U 23068D   23271.55335165  .00000111  00000+0  19534-3 0  9996
2 56713  88.3205 103.6030 0001818 108.4283 251.7056 13.34755335 19114
ONEWEB-0678             
1 56714U 23068E   23271.58335648 -.00029703  00000+0 -64997-1 0  9997
2 56714  88.0410  96.7296 0001710  94.8995 219.7318 13.28846188 19468
ONEWEB-0679             
1 56715U 23068F   23271.01577366  .00002039  00000+0  27513-3 0  9997
2 56715  86.7173  86.8968 0017204 121.8620 238.4278 14.78531998 20121
ONEWEB-0680             
1 56716U 23068G   23271.25001157 -.01013890  00000+0 -22139+0 0  9999
2 56716  86.8609  86.9174 0016342 125.8376 340.3098 14.60916222 20144
ONEWEB-0681             
1 56717U 23068H   23271.58335648 -.00906252  00000+0 -20760+0 0  9991
2 56717  86.8799  86.8631 0015200 123.8915  40.3634 14.58423949 20195
ONEWEB-0682             
1 56718U 23068J   23271.44837038  .00053800  00000+0  11589+0 0  9996
2 56718  88.0155  96.2091 0003361 128.8049 231.3390 13.29221817 19544
ONEWEB-0683             
1 56719U 23068K   23271.43342411  .00009620  00000+0  20985-1 0  9995
2 56719  88.0268  96.1778 0001948  81.2029 278.9329 13.28641716 19520
ONEWEB-0684             
1 56720U 23068L   23271.58335648  .00000013  00000+0  00000+0 0  9998
2 56720  87.8124  97.0500 0001130  42.8176 275.3891 13.21354364 19430
ONEWEB-0686             
1 56721U 23068M   23271.03898559  .00002052  00000+0  27876-3 0  9993
2 56721  86.7146  86.8654 0016348 123.6440 236.6342 14.78243373 20127
ONEWEB-0694             
1 56722U 23068N   23271.51649014  .00001962  00000+0  26667-3 0  9993
2 56722  86.7189  86.7414 0016577 121.0575 239.2275 14.78209719 20190
ONEWEB-0696             
1 56723U 23068P   23271.37556601  .00003700  00000+0  80153-2 0  9998
2 56723  88.0284  96.3932 0003881 100.8837 259.2738 13.29003574 19475
ONEWEB-0703             
1 56724U 23068Q   23271.58335648  .00000013  00000+0  00000+0 0  9992
2 56724  87.8531  96.9960 0002723  94.4679  17.6191 13.20604610 19446
ONEWEB-0721             
1 56725U 23068R   23271.03390660  .00002414  00000+0  29221-3 0  9995
2 56725  86.6713  85.9588 0012810 119.1049 241.1459 14.83201516 20175
